*******************************************************************************
JPL/HORIZONS                 131 Vala (A873 KA)            2020-Jun-20 08:18:29
Rec #:     131 (+COV) Soln.date: 2020-May-20_00:59:15   # obs: 3589 (1873-2020)
 
IAU76/J2000 helio. ecliptic osc. elements (au, days, deg., period=Julian yrs):
 
  EPOCH=  2456268.5 ! 2012-Dec-07.00 (TDB)         Residual RMS= .30675
   EC= .06759134529899291  QR= 2.267062990663159   TP= 2456489.5614630198
   OM= 65.69781527809131   W=  161.1643197323839   IN= 4.960642096964608
   A= 2.431404920185057    MA= 302.5313259414866   ADIST= 2.595746849706956
   PER= 3.79135            N= .259966942           ANGMOM= .026761827
   DAN= 2.58571            DDN= 2.27478            L= 226.9277383
   B= 1.5997762            MOID= 1.25715995        TP= 2013-Jul-16.0614630198
 
Asteroid physical parameters (km, seconds, rotational period in hours):
   GM= n.a.                RAD= 15.6685            ROTPER= 5.1812
   H= 9.9                  G= .150                 B-V= .829
                           ALBEDO= .246            STYP= Xc
 
ASTEROID comments: 
1: soln ref.= JPL#69, OCC=0
2: source=ORB
*******************************************************************************
 
 
*******************************************************************************
Ephemeris / WWW_USER Sat Jun 20 08:18:29 2020 Pasadena, USA      / Horizons
*******************************************************************************
Target body name: 131 Vala (A873 KA)              {source: JPL#69}
Center body name: Solar System Barycenter (0)     {source: DE431}
Center-site name: BODY CENTER
*******************************************************************************
Start time      : A.D. 1969-Jun-28 00:00:00.0000 TDB
Stop  time      : A.D. 2071-May-04 00:00:00.0000 TDB
Step-size       : 7200 minutes
*******************************************************************************
Center geodetic : 0.00000000,0.00000000,0.0000000 {E-lon(deg),Lat(deg),Alt(km)}
Center cylindric: 0.00000000,0.00000000,0.0000000 {E-lon(deg),Dxy(km),Dz(km)}
Center radii    : (undefined)                                                  
Small perturbers: Yes                             {source: SB431-N16}
Output units    : AU-D
Output type     : GEOMETRIC cartesian states
Output format   : 2 (position and velocity)
Reference frame : Ecliptic of J2000.0
*******************************************************************************
Initial IAU76/J2000 heliocentric ecliptic osculating elements (au, days, deg.):
  EPOCH=  2456268.5 ! 2012-Dec-07.00 (TDB)         Residual RMS= .30675        
   EC= .06759134529899291  QR= 2.267062990663159   TP= 2456489.5614630198      
   OM= 65.69781527809131   W=  161.1643197323839   IN= 4.960642096964608       
  Equivalent ICRF heliocentric equatorial cartesian coordinates (au, au/d):
   X=-2.235414204588224E+00  Y= 5.626294057403275E-01  Z= 4.639499162585895E-01
  VX=-2.773767016629556E-03 VY=-1.007513024355969E-02 VZ=-4.559455615314624E-03
Asteroid physical parameters (km, seconds, rotational period in hours):        
   GM= n.a.                RAD= 15.6685            ROTPER= 5.1812              
   H= 9.9                  G= .150                 B-V= .829                   
                           ALBEDO= .246            STYP= Xc                    
*******************************************************************************
            JDTDB,            Calendar Date (TDB),        delta-T,                      X,                      Y,                      Z,                     VX,                     VY,                     VZ,
******************************************************************************************************************************************************************************************************************
$$SOE
2448380.500000000, A.D. 1991-May-04 00:00:00.0000,      58.185429,  6.648434215330117E-01, -2.247276758615444E+00, -1.322689816868505E-01,  1.108688469636371E-02,  2.635551419131693E-03, -7.836409414960713E-04,
2448385.500000000, A.D. 1991-May-09 00:00:00.0000,      58.185355,  7.200833205696885E-01, -2.233458661042750E+00, -1.361490924345466E-01,  1.100808037972541E-02,  2.891246058143719E-03, -7.683403271839698E-04,
2448390.500000000, A.D. 1991-May-14 00:00:00.0000,      58.185272,  7.749143641679169E-01, -2.218368829030893E+00, -1.399517654140500E-01,  1.092335946613896E-02,  3.144222244248641E-03, -7.526679888817807E-04,
2448395.500000000, A.D. 1991-May-19 00:00:00.0000,      58.185179,  8.293072259815903E-01, -2.202021195462190E+00, -1.436751743908821E-01,  1.083282509664291E-02,  3.394344459664409E-03, -7.366368933121219E-04,
2448400.500000000, A.D. 1991-May-24 00:00:00.0000,      58.185077,  8.832331024872695E-01, -2.184430359839189E+00, -1.473175581380287E-01,  1.073658322609760E-02,  3.641481579513867E-03, -7.202600739255352E-04,
2448405.500000000, A.D. 1991-May-29 00:00:00.0000,      58.184966,  9.366637265582020E-01, -2.165611566246462E+00, -1.508772207278488E-01,  1.063474242565194E-02,  3.885506899731917E-03, -7.035506143001528E-04,
2448410.500000000, A.D. 1991-Jun-03 00:00:00.0000,      58.184849,  9.895713800585445E-01, -2.145580681196335E+00, -1.543525317423937E-01,  1.052741368841464E-02,  4.126298155593664E-03, -6.865216321122515E-04,
2448415.500000000, A.D. 1991-Jun-08 00:00:00.0000,      58.184727,  1.041928905474496E+00, -2.124354171405187E+00, -1.577419264050443E-01,  1.041471023857880E-02,  4.363737530992093E-03, -6.691862636926635E-04,
2448420.500000000, A.D. 1991-Jun-13 00:00:00.0000,      58.184600,  1.093709716600049E+00, -2.101949081545773E+00, -1.610439056364208E-01,  1.029674734417014E-02,  4.597711658842739E-03, -6.515576491836273E-04,
2448425.500000000, A.D. 1991-Jun-18 00:00:00.0000,      58.184470,  1.144887808295885E+00, -2.078383012018512E+00, -1.642570360376102E-01,  1.017364213358565E-02,  4.828111613193629E-03, -6.336489183090372E-04,
2448430.500000000, A.D. 1991-Jun-23 00:00:00.0000,      58.184335,  1.195437765340773E+00, -2.053674096781364E+00, -1.673799498037875E-01,  1.004551341609234E-02,  5.054832893841495E-03, -6.154731767638724E-04,
2448435.500000000, A.D. 1991-Jun-28 00:00:00.0000,      58.184196,  1.245334770396104E+00, -2.027840981273648E+00, -1.704113445713510E-01,  9.912481506672914E-03,  5.277775404217569E-03, -5.970434932327860E-04,
2448440.500000000, A.D. 1991-Jul-03 00:00:00.0000,      58.184056,  1.294554611106800E+00, -2.000902800466805E+00, -1.733499832017784E-01,  9.774668055832025E-03,  5.496843422701490E-03, -5.783728870639556E-04,
2448445.500000000, A.D. 1991-Jul-08 00:00:00.0000,      58.183917,  1.343073686364463E+00, -1.972879157075370E+00, -1.761946935055208E-01,  9.632195884693572E-03,  5.711945567222570E-03, -5.594743166105224E-04,
2448450.500000000, A.D. 1991-Jul-13 00:00:00.0000,      58.183780,  1.390869011759193E+00, -1.943790099961325E+00, -1.789443679092388E-01,  9.485188825359149E-03,  5.922994753379392E-03, -5.403606682212124E-04,
2448455.500000000, A.D. 1991-Jul-18 00:00:00.0000,      58.183644,  1.437918224246157E+00, -1.913656102762966E+00, -1.815979630695501E-01,  9.333771566437882E-03,  6.129908146608465E-03, -5.210447458463216E-04,
2448460.500000000, A.D. 1991-Jul-23 00:00:00.0000,      58.183509,  1.484199586052624E+00, -1.882498042776653E+00, -1.841544994362519E-01,  9.178069503689934E-03,  6.332607108957598E-03, -5.015392612155279E-04,
2448465.500000000, A.D. 1991-Jul-28 00:00:00.0000,      58.183377,  1.529691987850856E+00, -1.850337180117012E+00, -1.866130607677564E-01,  9.018208595719031E-03,  6.531017141022553E-03, -4.818568245350933E-04,
2448470.500000000, A.D. 1991-Aug-02 00:00:00.0000,      58.183249,  1.574374951221928E+00, -1.817195137178309E+00, -1.889727936011965E-01,  8.854315224632444E-03,  6.725067819650364E-03, -4.620099356498796E-04,
2448475.500000000, A.D. 1991-Aug-07 00:00:00.0000,      58.183128,  1.618228630435145E+00, -1.783093878416479E+00, -1.912329066794001E-01,  8.686516061627096E-03,  6.914692732095341E-03, -4.420109756232351E-04,
2448480.500000000, A.D. 1991-Aug-12 00:00:00.0000,      58.183015,  1.661233813567895E+00, -1.748055690467753E+00, -1.933926703367707E-01,  8.514937937604630E-03,  7.099829407336471E-03, -4.218721987203222E-04,
2448485.500000000, A.D. 1991-Aug-17 00:00:00.0000,      58.182907,  1.703371922991703E+00, -1.712103162616460E+00, -1.954514158461506E-01,  8.339707719110440E-03,  7.280419245181795E-03, -4.016057248284984E-04,
2448490.500000000, A.D. 1991-Aug-22 00:00:00.0000,      58.182807,  1.744625015252308E+00, -1.675259167621894E+00, -1.974085347290386E-01,  8.160952190094158E-03,  7.456407443584722E-03, -3.812235323943252E-04,
2448495.500000000, A.D. 1991-Aug-27 00:00:00.0000,      58.182713,  1.784975780374407E+00, -1.637546842912824E+00, -1.992634780320041E-01,  7.978797940136683E-03,  7.627742924248113E-03, -3.607374519829990E-04,
2448500.500000000, A.D. 1991-Sep-01 00:00:00.0000,      58.182630,  1.824407540625008E+00, -1.598989572158928E+00, -2.010157555726453E-01,  7.793371259733223E-03,  7.794378256150640E-03, -3.401591605483319E-04,
2448505.500000000, A.D. 1991-Sep-06 00:00:00.0000,      58.182557,  1.862904248771317E+00, -1.559610967231210E+00, -2.026649351587681E-01,  7.604798042809099E-03,  7.956269576315537E-03, -3.195001764509581E-04,
2448510.500000000, A.D. 1991-Sep-11 00:00:00.0000,      58.182497,  1.900450485868378E+00, -1.519434850566586E+00, -2.042106417844774E-01,  7.413203695953984E-03,  8.113376507337974E-03, -2.987718551953064E-04,
2448515.500000000, A.D. 1991-Sep-16 00:00:00.0000,      58.182446,  1.937031458607562E+00, -1.478485237952583E+00, -2.056525568065672E-01,  7.218713053344838E-03,  8.265662071936271E-03, -2.779853857912535E-04,
